ELYSIUM STAR 2 & LFF    
1 43760U 18099C   24266.93074730  .00108729  00000+0  25602-2 0  9993
2 43760  97.5026 335.9131 0005605 259.8788 100.1827 15.41516041318200
